NORAD_CAT_ID,OBJECT_NAME,OBJECT_TYPE,EPOCH,MEAN_MOTION,ECCENTRICITY,INCLINATION,RA_OF_ASC_NODE,ARG_OF_PERICENTER,MEAN_ANOMALY,BSTAR,MEAN_MOTION_DOT,MEAN_MOTION_DDOT,TLE_LINE0,TLE_LINE1,TLE_LINE2,SEMIMAJOR_AXIS,PERIOD,APOGEE,PERIGEE,DECAYED
51150.0,STARLINK-3357,PAYLOAD,2024-01-03 02:59:09,15.08840499,0.0001421,53.2172,274.6574,83.9839,276.1315,5.8601e-05,6.45e-06,0.0,0 STARLINK-3357,1 51150U 22005AY  24003.12442004  .00000645  00000-0  58601-4 0  9996,2 51150  53.2172 274.6574 0001421  83.9839 276.1315 15.08840499108492,6917.879,95.438,540.727,538.761,0.0
51150.0,STARLINK-3357,PAYLOAD,2024-01-03 22:03:47,15.0884077,0.0001558,53.2177,271.0885,93.1343,266.9827,-2.3207e-05,-6.57e-06,0.0,0 STARLINK-3357,1 51150U 22005AY  24003.91930305 -.00000657  00000-0 -23207-4 0  9998,2 51150  53.2177 271.0885 0001558  93.1343 266.9827 15.08840770108618,6917.878,95.438,540.821,538.665,0.0
51150.0,STARLINK-3357,PAYLOAD,2024-01-04 02:49:56,15.08845637,0.0001524,53.2175,270.1966,86.9209,273.1958,6.2991e-06,-1.88e-06,0.0,0 STARLINK-3357,1 51150U 22005AY  24004.11801883 -.00000188  00000-0  62991-5 0  9991,2 51150  53.2175 270.1966 0001524  86.9209 273.1958 15.08845637109758,6917.863,95.437,540.782,538.674,0.0
51150.0,STARLINK-3357,PAYLOAD,2024-01-04 21:54:34,15.08837416,0.0001554,53.2171,266.6298,83.4893,276.6276,5.886e-05,6.49e-06,0.0,0 STARLINK-3357,1 51150U 22005AY  24004.91290300  .00000649  00000-0  58860-4 0  9995,2 51150  53.2171 266.6298 0001554  83.4893 276.6276 15.08837416108763,6917.888,95.438,540.828,538.678,0.0
51150.0,STARLINK-3357,PAYLOAD,2024-01-05 02:40:43,15.08843077,0.0001515,53.2164,265.7373,84.8597,275.2568,9.4991e-05,1.224e-05,0.0,0 STARLINK-3357,1 51150U 22005AY  24005.11161843  .00001224  00000-0  94991-4 0  9992,2 51150  53.2164 265.7373 0001515  84.8597 275.2568 15.08843077108794,6917.871,95.437,540.784,538.688,0.0
51150.0,STARLINK-3357,PAYLOAD,2024-01-05 16:59:12,15.08839932,0.0001437,53.2157,263.0606,97.5611,262.5544,1.1371e-05,-1.07e-06,0.0,0 STARLINK-3357,1 51150U 22005AY  24005.70778368 -.00000107  00000-0  11371-4 0  9994,2 51150  53.2157 263.0606 0001437  97.5611 262.5544 15.08839932109998,6917.881,95.438,540.74,538.751,0.0
51150.0,STARLINK-3357,PAYLOAD,2024-01-05 21:45:21,15.08841447,0.0001449,53.2157,262.1694,94.0295,266.0863,2.4993e-05,1.1e-06,0.0,0 STARLINK-3357,1 51150U 22005AY  24005.90650214  .00000110  00000-0  24993-4 0  9992,2 51150  53.2157 262.1694 0001449  94.0295 266.0863 15.08841447108916,6917.876,95.437,540.743,538.739,0.0
51150.0,STARLINK-3357,PAYLOAD,2024-01-06 02:31:30,15.08844588,0.0001469,53.2156,261.2765,96.3958,263.7201,4.5808e-05,4.41e-06,0.0,0 STARLINK-3357,1 51150U 22005AY  24006.10521900  .00000441  00000-0  45808-4 0  9999,2 51150  53.2156 261.2765 0001469  96.3958 263.7201 15.08844588108949,6917.866,95.437,540.748,538.715,0.0
51150.0,STARLINK-3357,PAYLOAD,2024-01-06 20:00:45,15.08839543,0.0001823,53.2163,258.0055,116.7953,243.3226,-6.6738e-06,-3.94e-06,0.0,0 STARLINK-3357,1 51150U 22005AY  24006.83386384 -.00000394  00000-0 -66738-5 0  9999,2 51150  53.2163 258.0055 0001823 116.7953 243.3226 15.08839543110162,6917.882,95.438,541.008,538.486,0.0
51150.0,STARLINK-3357,PAYLOAD,2024-01-06 21:36:08,15.08839305,0.0001754,53.2162,257.7083,112.3385,247.7793,-7.4992e-06,-4.07e-06,0.0,0 STARLINK-3357,1 51150U 22005AY  24006.90010401 -.00000407  00000-0 -74992-5 0  9997,2 51150  53.2162 257.7083 0001754 112.3385 247.7793 15.08839305109062,6917.883,95.438,540.961,538.534,0.0
51150.0,STARLINK-3357,PAYLOAD,2024-01-07 02:22:18,15.08835572,0.0001448,53.2153,256.8155,89.9005,270.2153,7.4958e-05,9.05e-06,0.0,0 STARLINK-3357,1 51150U 22005AY  24007.09882458  .00000905  00000-0  74958-4 0  9999,2 51150  53.2153 256.8155 0001448  89.9005 270.2153 15.08835572109096,6917.894,95.438,540.761,538.757,0.0
51150.0,STARLINK-3357,PAYLOAD,2024-01-07 19:51:32,15.08839235,0.0001701,53.2164,253.5441,105.5683,254.5497,1.8476e-05,6e-08,0.0,0 STARLINK-3357,1 51150U 22005AY  24007.82746483  .00000006  00000-0  18476-4 0  9992,2 51150  53.2164 253.5441 0001701 105.5683 254.5497 15.08839235109208,6917.883,95.438,540.924,538.571,0.0
51150.0,STARLINK-3357,PAYLOAD,2024-01-07 23:02:19,15.08840235,0.0001705,53.2164,252.9494,103.7399,256.3783,2.5333e-05,1.15e-06,0.0,0 STARLINK-3357,1 51150U 22005AY  24007.95994389  .00000115  00000-0  25333-4 0  9997,2 51150  53.2164 252.9494 0001705 103.7399 256.3783 15.08840235110333,6917.88,95.438,540.924,538.565,0.0
51150.0,STARLINK-3357,PAYLOAD,2024-01-08 21:17:43,15.08836499,0.0001678,53.217,248.7856,108.8795,251.2379,2.5485e-05,1.18e-06,0.0,0 STARLINK-3357,1 51150U 22005AY  24008.88730767  .00000118  00000-0  25485-4 0  9999,2 51150  53.2170 248.7856 0001678 108.8795 251.2379 15.08836499109363,6917.891,95.438,540.917,538.595,0.0
51150.0,STARLINK-3357,PAYLOAD,2024-01-09 14:46:57,15.08836642,0.0001768,53.2172,245.5131,113.8437,246.2741,4.0084e-05,3.5e-06,0.0,0 STARLINK-3357,1 51150U 22005AY  24009.61594877  .00000350  00000-0  40084-4 0  9991,2 51150  53.2172 245.5131 0001768 113.8437 246.2741 15.08836642109474,6917.891,95.438,540.979,538.533,0.0
51150.0,STARLINK-3357,PAYLOAD,2024-01-09 19:33:07,15.08839012,0.0001843,53.2176,244.6239,116.7557,243.3624,5.04e-05,5.14e-06,0.0,0 STARLINK-3357,1 51150U 22005AY  24009.81466687  .00000514  00000-0  50400-4 0  9995,2 51150  53.2176 244.6239 0001843 116.7557 243.3624 15.08839012109502,6917.883,95.438,541.023,538.473,0.0
51150.0,STARLINK-3357,PAYLOAD,2024-01-09 22:43:53,15.08838949,0.0001578,53.2172,244.0294,103.6423,256.4745,3.6613e-05,2.95e-06,0.0,0 STARLINK-3357,1 51150U 22005AY  24009.94714815  .00000295  00000-0  36613-4 0  9994,2 51150  53.2172 244.0294 0001578 103.6423 256.4745 15.08838949110638,6917.884,95.438,540.84,538.657,0.0
51150.0,STARLINK-3357,PAYLOAD,2024-01-10 19:23:52,15.08853222,0.000129,53.2158,240.162,79.802,280.3118,0.00017793,2.546e-05,0.0,0 STARLINK-3357,1 51150U 22005AY  24010.80825201  .00002546  00000-0  17793-3 0  9991,2 51150  53.2158 240.1620 0001290  79.8020 280.3118 15.08853222110765,6917.84,95.437,540.597,538.813,0.0
51150.0,STARLINK-3357,PAYLOAD,2024-01-11 00:10:01,15.0886119,0.0001397,53.2163,239.2702,97.3424,262.7726,0.00024841,3.67e-05,0.0,0 STARLINK-3357,1 51150U 22005AY  24011.00696459  .00003670  00000-0  24841-3 0  9996,2 51150  53.2163 239.2702 0001397  97.3424 262.7726 15.08861190110797,6917.816,95.436,540.647,538.714,0.0
51150.0,STARLINK-3357,PAYLOAD,2024-01-11 19:14:41,15.08832092,0.0001289,53.2164,235.7006,92.7718,267.3421,-5.5098e-05,-1.164e-05,0.0,0 STARLINK-3357,1 51150U 22005AY  24011.80187264 -.00001164  00000-0 -55098-4 0  9990,2 51150  53.2164 235.7006 0001289  92.7718 267.3421 15.08832092110917,6917.905,95.438,540.661,538.878,0.0
51150.0,STARLINK-3357,PAYLOAD,2024-01-11 22:25:27,15.08830319,0.0001351,53.2148,235.1063,102.0081,258.1062,-0.00017776,-3.115e-05,0.0,0 STARLINK-3357,1 51150U 22005AY  24011.93434620 -.00003115  00000-0 -17776-3 0  9993,2 51150  53.2148 235.1063 0001351 102.0081 258.1062 15.08830319109821,6917.91,95.438,540.71,538.84,0.0
51150.0,STARLINK-3357,PAYLOAD,2024-01-12 19:05:28,15.08835431,0.0001251,53.2147,231.2416,97.3372,262.7763,-0.00010782,-2.003e-05,0.0,0 STARLINK-3357,1 51150U 22005AY  24012.79546863 -.00002003  00000-0 -10782-3 0  9996,2 51150  53.2147 231.2416 0001251  97.3372 262.7763 15.08835431111065,6917.894,95.438,540.625,538.894,0.0
51150.0,STARLINK-3357,PAYLOAD,2024-01-12 20:40:51,15.08837421,0.0001245,53.2141,230.9528,101.6452,258.468,-5.609e-05,-1.18e-05,0.0,0 STARLINK-3357,1 51150U 22005AY  24012.86170867 -.00001180  00000-0 -56090-4 0  9999,2 51150  53.2141 230.9528 0001245 101.6452 258.4680 15.08837421109967,6917.888,95.438,540.615,538.892,0.0
51150.0,STARLINK-3357,PAYLOAD,2024-01-12 23:51:37,15.08841308,0.0001315,53.2146,230.3482,108.1123,252.0012,1.5687e-05,-3.8e-07,0.0,0 STARLINK-3357,1 51150U 22005AY  24012.99418615 -.00000038  00000-0  15687-4 0  9996,2 51150  53.2146 230.3482 0001315 108.1123 252.0012 15.08841308111095,6917.876,95.437,540.651,538.832,0.0
51150.0,STARLINK-3357,PAYLOAD,2024-01-13 18:56:15,15.08841096,0.0001517,53.2153,226.7778,74.5369,285.5791,0.00038613,5.863e-05,0.0,0 STARLINK-3357,1 51150U 22005AY  24013.78907389  .00005863  00000-0  38613-3 0  9998,2 51150  53.2153 226.7778 0001517  74.5369 285.5791 15.08841096111215,6917.877,95.437,540.791,538.693,0.0
51150.0,STARLINK-3357,PAYLOAD,2024-01-13 23:42:25,15.08846279,0.0001546,53.2145,225.8872,75.1869,284.9294,0.00045429,6.951e-05,0.0,0 STARLINK-3357,1 51150U 22005AY  24013.98779339  .00006951  00000-0  45429-3 0  9994,2 51150  53.2145 225.8872 0001546  75.1869 284.9294 15.08846279110134,6917.861,95.437,540.796,538.657,0.0
51150.0,STARLINK-3357,PAYLOAD,2024-01-14 20:22:25,15.08845219,0.0001428,53.2143,222.0198,81.7741,278.3413,0.00017307,2.468e-05,0.0,0 STARLINK-3357,1 51150U 22005AY  24014.84891145  .00002468  00000-0  17307-3 0  9993,2 51150  53.2143 222.0198 0001428  81.7741 278.3413 15.08845219110260,6917.864,95.437,540.717,538.742,0.0
51150.0,STARLINK-3357,PAYLOAD,2024-01-14 23:33:12,15.08844634,0.0001468,53.2149,221.4265,90.1821,269.9339,0.00015259,2.142e-05,0.0,0 STARLINK-3357,1 51150U 22005AY  24014.98139147  .00002142  00000-0  15259-3 0  9998,2 51150  53.2149 221.4265 0001468  90.1821 269.9339 15.08844634111399,6917.866,95.437,540.747,538.716,0.0
51150.0,STARLINK-3357,PAYLOAD,2024-01-15 18:37:49,15.08840887,0.000159,53.215,217.8567,109.2541,250.8623,4.8115e-05,4.78e-06,0.0,0 STARLINK-3357,1 51150U 22005AY  24015.77627104  .00000478  00000-0  48115-4 0  9999,2 51150  53.2150 217.8567 0001590 109.2541 250.8623 15.08840887111517,6917.878,95.437,540.843,538.643,0.0
51150.0,STARLINK-3357,PAYLOAD,2024-01-15 20:13:12,15.08839747,0.0001531,53.2149,217.5595,105.9345,254.1816,2.1482e-05,5.4e-07,0.0,0 STARLINK-3357,1 51150U 22005AY  24015.84251147  .00000054  00000-0  21482-4 0  9995,2 51150  53.2149 217.5595 0001531 105.9345 254.1816 15.08839747110415,6917.881,95.438,540.805,538.687,0.0
